[{"OBJECT_NAME":"UNISAT-6","OBJECT_ID":"2014-033C","EPOCH":"2026-03-03T00:20:41.434080","MEAN_MOTION":14.87574907,"ECCENTRICITY":0.0046455,"INCLINATION":97.7709,"RA_OF_ASC_NODE":216.7299,"ARG_OF_PERICENTER":59.481,"MEAN_ANOMALY":301.098,"EPHEMERIS_TYPE":0,"CLASSIFICATION_TYPE":"U","NORAD_CAT_ID":40012,"ELEMENT_SET_NO":999,"REV_AT_EPOCH":63037,"BSTAR":0.00043304,"MEAN_MOTION_DOT":3.956e-5,"MEAN_MOTION_DDOT":0},{"OBJECT_NAME":"DUCHIFAT-1","OBJECT_ID":"2014-033M","EPOCH":"2026-03-03T02:41:30.812352","MEAN_MOTION":15.48874704,"ECCENTRICITY":0.000672,"INCLINATION":98.0644,"RA_OF_ASC_NODE":107.7691,"ARG_OF_PERICENTER":103.1192,"MEAN_ANOMALY":257.0807,"EPHEMERIS_TYPE":0,"CLASSIFICATION_TYPE":"U","NORAD_CAT_ID":40021,"ELEMENT_SET_NO":999,"REV_AT_EPOCH":63925,"BSTAR":0.0011193,"MEAN_MOTION_DOT":0.00060633,"MEAN_MOTION_DDOT":0},{"OBJECT_NAME":"QB50P1","OBJECT_ID":"2014-033R","EPOCH":"2026-03-02T23:30:26.797248","MEAN_MOTION":15.16340222,"ECCENTRICITY":0.0007614,"INCLINATION":98.0997,"RA_OF_ASC_NODE":65.8094,"ARG_OF_PERICENTER":219.787,"MEAN_ANOMALY":140.2804,"EPHEMERIS_TYPE":0,"CLASSIFICATION_TYPE":"U","NORAD_CAT_ID":40025,"ELEMENT_SET_NO":999,"REV_AT_EPOCH":63692,"BSTAR":0.00057391,"MEAN_MOTION_DOT":0.00011071,"MEAN_MOTION_DDOT":0},{"OBJECT_NAME":"LILACSAT-2","OBJECT_ID":"2015-049K","EPOCH":"2026-03-03T04:18:25.826112","MEAN_MOTION":15.47735618,"ECCENTRICITY":0.0005582,"INCLINATION":97.4816,"RA_OF_ASC_NODE":95.1786,"ARG_OF_PERICENTER":278.2575,"MEAN_ANOMALY":81.8042,"EPHEMERIS_TYPE":0,"CLASSIFICATION_TYPE":"U","NORAD_CAT_ID":40908,"ELEMENT_SET_NO":999,"REV_AT_EPOCH":57933,"BSTAR":0.00038164,"MEAN_MOTION_DOT":0.00019701,"MEAN_MOTION_DDOT":0},{"OBJECT_NAME":"FOX-1A (AO-85)","OBJECT_ID":"2015-058D","EPOCH":"2026-03-02T21:10:06.507264","MEAN_MOTION":14.90282691,"ECCENTRICITY":0.0129257,"INCLINATION":64.7735,"RA_OF_ASC_NODE":249.1775,"ARG_OF_PERICENTER":98.6614,"MEAN_ANOMALY":262.9166,"EPHEMERIS_TYPE":0,"CLASSIFICATION_TYPE":"U","NORAD_CAT_ID":40967,"ELEMENT_SET_NO":999,"REV_AT_EPOCH":9772,"BSTAR":0.00042033,"MEAN_MOTION_DOT":4.626e-5,"MEAN_MOTION_DDOT":0},{"OBJECT_NAME":"CAS-2T & KS-1Q","OBJECT_ID":"2016-066G","EPOCH":"2026-03-03T04:41:44.195424","MEAN_MOTION":14.44445019,"ECCENTRICITY":0.0343793,"INCLINATION":98.3899,"RA_OF_ASC_NODE":139.1171,"ARG_OF_PERICENTER":91.1199,"MEAN_ANOMALY":272.9394,"EPHEMERIS_TYPE":0,"CLASSIFICATION_TYPE":"U","NORAD_CAT_ID":41847,"ELEMENT_SET_NO":999,"REV_AT_EPOCH":48949,"BSTAR":0.0002484,"MEAN_MOTION_DOT":1.721e-5,"MEAN_MOTION_DDOT":0},{"OBJECT_NAME":"RADFXSAT (FOX-1B)","OBJECT_ID":"2017-073E","EPOCH":"2026-03-03T04:05:51.485856","MEAN_MOTION":15.10700318,"ECCENTRICITY":0.0155498,"INCLINATION":97.4875,"RA_OF_ASC_NODE":291.605,"ARG_OF_PERICENTER":334.7355,"MEAN_ANOMALY":24.6325,"EPHEMERIS_TYPE":0,"CLASSIFICATION_TYPE":"U","NORAD_CAT_ID":43017,"ELEMENT_SET_NO":999,"REV_AT_EPOCH":44937,"BSTAR":0.00056648,"MEAN_MOTION_DOT":0.00012485,"MEAN_MOTION_DDOT":0},{"OBJECT_NAME":"DIWATA-2B","OBJECT_ID":"2018-084H","EPOCH":"2026-03-03T04:25:50.995200","MEAN_MOTION":14.99917926,"ECCENTRICITY":0.001108,"INCLINATION":98.1033,"RA_OF_ASC_NODE":253.9545,"ARG_OF_PERICENTER":146.982,"MEAN_ANOMALY":213.2096,"EPHEMERIS_TYPE":0,"CLASSIFICATION_TYPE":"U","NORAD_CAT_ID":43678,"ELEMENT_SET_NO":999,"REV_AT_EPOCH":40032,"BSTAR":0.00021719,"MEAN_MOTION_DOT":2.633e-5,"MEAN_MOTION_DDOT":0},{"OBJECT_NAME":"ES'HAIL 2","OBJECT_ID":"2018-090A","EPOCH":"2026-03-03T03:13:38.772192","MEAN_MOTION":1.00270941,"ECCENTRICITY":0.0002568,"INCLINATION":0.0228,"RA_OF_ASC_NODE":237.9498,"ARG_OF_PERICENTER":135.7171,"MEAN_ANOMALY":221.4238,"EPHEMERIS_TYPE":0,"CLASSIFICATION_TYPE":"U","NORAD_CAT_ID":43700,"ELEMENT_SET_NO":999,"REV_AT_EPOCH":2661,"BSTAR":0,"MEAN_MOTION_DOT":1.28e-6,"MEAN_MOTION_DDOT":0},{"OBJECT_NAME":"FOX-1CLIFF (AO-95)","OBJECT_ID":"2018-099N","EPOCH":"2026-03-03T03:27:47.847456","MEAN_MOTION":15.24199958,"ECCENTRICITY":0.0008885,"INCLINATION":97.453,"RA_OF_ASC_NODE":122.9032,"ARG_OF_PERICENTER":10.7969,"MEAN_ANOMALY":349.3457,"EPHEMERIS_TYPE":0,"CLASSIFICATION_TYPE":"U","NORAD_CAT_ID":43770,"ELEMENT_SET_NO":999,"REV_AT_EPOCH":39705,"BSTAR":0.0005549,"MEAN_MOTION_DOT":0.00013475,"MEAN_MOTION_DDOT":0},{"OBJECT_NAME":"ITASAT","OBJECT_ID":"2018-099AE","EPOCH":"2026-03-03T02:45:46.484640","MEAN_MOTION":15.17544013,"ECCENTRICITY":0.0012904,"INCLINATION":97.4182,"RA_OF_ASC_NODE":115.7771,"ARG_OF_PERICENTER":9.8071,"MEAN_ANOMALY":350.3412,"EPHEMERIS_TYPE":0,"CLASSIFICATION_TYPE":"U","NORAD_CAT_ID":43786,"ELEMENT_SET_NO":999,"REV_AT_EPOCH":39681,"BSTAR":0.00042828,"MEAN_MOTION_DOT":8.549e-5,"MEAN_MOTION_DDOT":0},{"OBJECT_NAME":"JY1SAT (JO-97)","OBJECT_ID":"2018-099AX","EPOCH":"2026-03-03T03:31:26.132736","MEAN_MOTION":15.30000981,"ECCENTRICITY":0.0004615,"INCLINATION":97.427,"RA_OF_ASC_NODE":124.8242,"ARG_OF_PERICENTER":287.762,"MEAN_ANOMALY":72.3116,"EPHEMERIS_TYPE":0,"CLASSIFICATION_TYPE":"U","NORAD_CAT_ID":43803,"ELEMENT_SET_NO":999,"REV_AT_EPOCH":39739,"BSTAR":0.00068272,"MEAN_MOTION_DOT":0.00019786,"MEAN_MOTION_DDOT":0},{"OBJECT_NAME":"UWE-4","OBJECT_ID":"2018-111E","EPOCH":"2026-03-02T17:18:31.080384","MEAN_MOTION":15.39415358,"ECCENTRICITY":0.00089193,"INCLINATION":97.586,"RA_OF_ASC_NODE":345.759,"ARG_OF_PERICENTER":5.6381,"MEAN_ANOMALY":354.4963,"EPHEMERIS_TYPE":0,"CLASSIFICATION_TYPE":"U","NORAD_CAT_ID":43880,"ELEMENT_SET_NO":999,"REV_AT_EPOCH":39436,"BSTAR":0.00091782545,"MEAN_MOTION_DOT":0.00036009,"MEAN_MOTION_DDOT":0},{"OBJECT_NAME":"TIANYAN 01","OBJECT_ID":"2019-093C","EPOCH":"2026-03-03T03:43:58.755360","MEAN_MOTION":14.86322721,"ECCENTRICITY":0.0015,"INCLINATION":97.7629,"RA_OF_ASC_NODE":136.9482,"ARG_OF_PERICENTER":77.4142,"MEAN_ANOMALY":282.8751,"EPHEMERIS_TYPE":0,"CLASSIFICATION_TYPE":"U","NORAD_CAT_ID":44881,"ELEMENT_SET_NO":999,"REV_AT_EPOCH":33566,"BSTAR":0.00015421,"MEAN_MOTION_DOT":1.307e-5,"MEAN_MOTION_DDOT":0},{"OBJECT_NAME":"RS-44 & BREEZE-KM R/B","OBJECT_ID":"2019-096E","EPOCH":"2026-03-03T01:42:29.690208","MEAN_MOTION":12.79747381,"ECCENTRICITY":0.0218188,"INCLINATION":82.5189,"RA_OF_ASC_NODE":50.2135,"ARG_OF_PERICENTER":32.759,"MEAN_ANOMALY":328.6825,"EPHEMERIS_TYPE":0,"CLASSIFICATION_TYPE":"U","NORAD_CAT_ID":44909,"ELEMENT_SET_NO":999,"REV_AT_EPOCH":28877,"BSTAR":-1.5145e-5,"MEAN_MOTION_DOT":8.0e-8,"MEAN_MOTION_DDOT":0},{"OBJECT_NAME":"SALSAT","OBJECT_ID":"2020-068K","EPOCH":"2026-03-02T22:16:53.037696","MEAN_MOTION":15.28017587,"ECCENTRICITY":0.0008827,"INCLINATION":97.8846,"RA_OF_ASC_NODE":58.6665,"ARG_OF_PERICENTER":325.0587,"MEAN_ANOMALY":35.0071,"EPHEMERIS_TYPE":0,"CLASSIFICATION_TYPE":"U","NORAD_CAT_ID":46495,"ELEMENT_SET_NO":999,"REV_AT_EPOCH":29912,"BSTAR":0.00042811,"MEAN_MOTION_DOT":0.00011638,"MEAN_MOTION_DDOT":0},{"OBJECT_NAME":"XW-3 (CAS-9)","OBJECT_ID":"2021-131B","EPOCH":"2026-03-03T04:28:23.549088","MEAN_MOTION":14.4124029,"ECCENTRICITY":0.0005098,"INCLINATION":98.497,"RA_OF_ASC_NODE":155.1791,"ARG_OF_PERICENTER":65.8927,"MEAN_ANOMALY":294.2795,"EPHEMERIS_TYPE":0,"CLASSIFICATION_TYPE":"U","NORAD_CAT_ID":50466,"ELEMENT_SET_NO":999,"REV_AT_EPOCH":21984,"BSTAR":0.00019284,"MEAN_MOTION_DOT":5.79e-6,"MEAN_MOTION_DDOT":0}]
