UNISAT-6                
1 40012U 14033C   26062.01436845  .00003956  00000+0  43304-3 0  9994
2 40012  97.7709 216.7299 0046455  59.4810 301.0980 14.87574907630377
DUCHIFAT-1              
1 40021U 14033M   26062.11216218  .00060633  00000+0  11193-2 0  9990
2 40021  98.0644 107.7691 0006720 103.1192 257.0807 15.48874704639255
QB50P1                  
1 40025U 14033R   26061.97947682  .00011071  00000+0  57391-3 0  9996
2 40025  98.0997  65.8094 0007614 219.7870 140.2804 15.16340222636920
LILACSAT-2              
1 40908U 15049K   26062.17946558  .00019701  00000+0  38164-3 0  9993
2 40908  97.4816  95.1786 0005582 278.2575  81.8042 15.47735618579337
FOX-1A (AO-85)          
1 40967U 15058D   26061.88201976  .00004626  00000+0  42033-3 0  9993
2 40967  64.7735 249.1775 0129257  98.6614 262.9166 14.90282691 97724
CAS-2T & KS-1Q          
1 41847U 16066G   26062.19565041  .00001721  00000+0  24840-3 0  9991
2 41847  98.3899 139.1171 0343793  91.1199 272.9394 14.44445019489490
RADFXSAT (FOX-1B)       
1 43017U 17073E   26062.17073479  .00012485  00000+0  56648-3 0  9998
2 43017  97.4875 291.6050 0155498 334.7355  24.6325 15.10700318449377
DIWATA-2B               
1 43678U 18084H   26062.18461800  .00002633  00000+0  21719-3 0  9999
2 43678  98.1033 253.9545 0011080 146.9820 213.2096 14.99917926400326
ES'HAIL 2               
1 43700U 18090A   26062.13447653  .00000128  00000+0  00000+0 0  9990
2 43700   0.0228 237.9498 0002568 135.7171 221.4238  1.00270941 26617
FOX-1CLIFF (AO-95)      
1 43770U 18099N   26062.14430379  .00013475  00000+0  55490-3 0  9990
2 43770  97.4530 122.9032 0008885  10.7969 349.3457 15.24199958397053
ITASAT                  
1 43786U 18099AE  26062.11512135  .00008549  00000+0  42828-3 0  9992
2 43786  97.4182 115.7771 0012904   9.8071 350.3412 15.17544013396817
JY1SAT (JO-97)          
1 43803U 18099AX  26062.14683024  .00019786  00000+0  68272-3 0  9997
2 43803  97.4270 124.8242 0004615 287.7620  72.3116 15.30000981397398
UWE-4                   
1 43880U 18111E   26061.72119306  .00036009  00000+0  91783-3 0  9997
2 43880  97.5860 345.7590 0008919   5.6381 354.4963 15.39415358394366
TIANYAN 01              
1 44881U 19093C   26062.15554115  .00001307  00000+0  15421-3 0  9996
2 44881  97.7629 136.9482 0015000  77.4142 282.8751 14.86322721335663
RS-44 & BREEZE-KM R/B   
1 44909U 19096E   26062.07117697  .00000008  00000+0 -15145-4 0  9993
2 44909  82.5189  50.2135 0218188  32.7590 328.6825 12.79747381288776
SALSAT                  
1 46495U 20068K   26061.92839164  .00011638  00000+0  42811-3 0  9998
2 46495  97.8846  58.6665 0008827 325.0587  35.0071 15.28017587299126
XW-3 (CAS-9)            
1 50466U 21131B   26062.18638367  .00000579  00000+0  19284-3 0  9994
2 50466  98.4970 155.1791 0005098  65.8927 294.2795 14.41240290219847
